NORAD_CAT_ID,OBJECT_NAME,OBJECT_TYPE,EPOCH,MEAN_MOTION,ECCENTRICITY,INCLINATION,RA_OF_ASC_NODE,ARG_OF_PERICENTER,MEAN_ANOMALY,BSTAR,MEAN_MOTION_DOT,MEAN_MOTION_DDOT,TLE_LINE0,TLE_LINE1,TLE_LINE2,SEMIMAJOR_AXIS,PERIOD,APOGEE,PERIGEE,DECAYED
53163.0,STARLINK-4104,PAYLOAD,2024-08-03 09:28:45,15.08850101,0.0001353,53.2157,262.7762,95.5287,264.5859,-4.4032e-05,-9.89e-06,0.0,0 STARLINK-4104,1 53163U 22083AH  24216.39496973 -.00000989  00000-0 -44032-4 0  9993,2 53163  53.2157 262.7762 0001353  95.5287 264.5859 15.08850101113309,6917.85,95.437,540.65,538.779,0.0
53163.0,STARLINK-4104,PAYLOAD,2024-08-03 20:36:27,15.08850817,0.0001397,53.216,260.6947,86.0951,274.0201,-5.728e-05,-1.2e-05,0.0,0 STARLINK-4104,1 53163U 22083AH  24216.85864742 -.00001200  00000-0 -57280-4 0  9993,2 53163  53.2160 260.6947 0001397  86.0951 274.0201 15.08850817114005,6917.847,95.437,540.679,538.746,0.0
53163.0,STARLINK-4104,PAYLOAD,2024-08-04 12:30:18,15.08850875,0.0001503,53.2163,257.7198,89.2117,270.9048,4.386e-05,4.1e-06,0.0,0 STARLINK-4104,1 53163U 22083AH  24217.52104489  .00000410  00000-0  43860-4 0  9992,2 53163  53.2163 257.7198 0001503  89.2117 270.9048 15.08850875113479,6917.847,95.437,540.752,538.672,0.0
53163.0,STARLINK-4104,PAYLOAD,2024-08-05 05:59:33,15.08848046,0.0001664,53.2162,254.4485,92.8078,267.3104,-6.0012e-05,-1.243e-05,0.0,0 STARLINK-4104,1 53163U 22083AH  24218.24968832 -.00001243  00000-0 -60012-4 0  9997,2 53163  53.2162 254.4485 0001664  92.8078 267.3104 15.08848046114218,6917.856,95.437,540.872,538.57,0.0
53163.0,STARLINK-4104,PAYLOAD,2024-08-05 09:10:19,15.08844973,0.0001757,53.2171,253.8517,109.0652,251.053,2.892e-05,1.72e-06,0.0,0 STARLINK-4104,1 53163U 22083AH  24218.38216769  .00000172  00000-0  28920-4 0  9997,2 53163  53.2171 253.8517 0001757 109.0652 251.0530 15.08844973113609,6917.865,95.437,540.946,538.515,0.0
53163.0,STARLINK-4104,PAYLOAD,2024-08-06 12:11:54,15.08827546,0.0001395,53.216,248.8001,86.7591,273.3561,-9.3187e-05,-1.77e-05,0.0,0 STARLINK-4104,1 53163U 22083AH  24219.50826748 -.00001770  00000-0 -93187-4 0  9990,2 53163  53.2160 248.8001 0001395  86.7591 273.3561 15.08827546114407,6917.918,95.438,540.749,538.818,0.0
53163.0,STARLINK-4104,PAYLOAD,2024-08-06 18:33:26,15.08831564,0.0001412,53.2163,247.6107,86.5304,273.585,-5.8733e-05,-1.222e-05,0.0,0 STARLINK-4104,1 53163U 22083AH  24219.77322547 -.00001222  00000-0 -58733-4 0  9997,2 53163  53.2163 247.6107 0001412  86.5304 273.5850 15.08831564113816,6917.906,95.438,540.748,538.794,0.0
53163.0,STARLINK-4104,PAYLOAD,2024-08-07 02:30:22,15.08828562,0.00014,53.2154,246.1244,102.3059,257.809,5.3961e-05,5.71e-06,0.0,0 STARLINK-4104,1 53163U 22083AH  24220.10442455  .00000571  00000-0  53961-4 0  9999,2 53163  53.2154 246.1244 0001400 102.3059 257.8090 15.08828562114493,6917.915,95.438,540.749,538.812,0.0
53163.0,STARLINK-4104,PAYLOAD,2024-08-07 05:41:08,15.08837542,0.0001257,53.2158,245.5295,85.9187,274.1948,-2.2624e-05,-6.48e-06,0.0,0 STARLINK-4104,1 53163U 22083AH  24220.23690385 -.00000648  00000-0 -22624-4 0  9999,2 53163  53.2158 245.5295 0001257  85.9187 274.1948 15.08837542113888,6917.888,95.438,540.622,538.883,0.0
53163.0,STARLINK-4104,PAYLOAD,2024-08-08 08:42:41,15.08844842,0.0001324,53.2157,240.4743,78.464,281.6501,0.00025043,3.7e-05,0.0,0 STARLINK-4104,1 53163U 22083AH  24221.36297543  .00003700  00000-0  25043-3 0  9990,2 53163  53.2157 240.4743 0001324  78.4640 281.6501 15.08844842114054,6917.866,95.437,540.647,538.815,0.0
53163.0,STARLINK-4104,PAYLOAD,2024-08-09 00:36:33,15.08840369,0.0001456,53.2163,237.4988,90.8327,269.2832,0.00011161,1.489e-05,0.0,0 STARLINK-4104,1 53163U 22083AH  24222.02538235  .00001489  00000-0  11161-3 0  9998,2 53163  53.2163 237.4988 0001456  90.8327 269.2832 15.08840369114783,6917.879,95.438,540.752,538.737,0.0
53163.0,STARLINK-4104,PAYLOAD,2024-08-09 05:22:42,15.08841858,0.0001547,53.217,236.608,96.5972,263.5196,7.4076e-05,8.91e-06,0.0,0 STARLINK-4104,1 53163U 22083AH  24222.22410244  .00000891  00000-0  74076-4 0  9990,2 53163  53.2170 236.6080 0001547  96.5972 263.5196 15.08841858114183,6917.875,95.437,540.81,538.67,0.0
53163.0,STARLINK-4104,PAYLOAD,2024-08-09 18:05:47,15.08843081,0.0001627,53.2172,234.2294,80.8692,279.2485,1.217e-06,-2.69e-06,0.0,0 STARLINK-4104,1 53163U 22083AH  24222.75402361 -.00000269  00000-0  12170-5 0  9997,2 53163  53.2172 234.2294 0001627  80.8692 279.2485 15.08843081114264,6917.871,95.437,540.862,538.61,0.0
53163.0,STARLINK-4104,PAYLOAD,2024-08-10 08:24:15,15.08845212,0.0001614,53.217,231.5527,82.5897,277.5278,-2.9491e-05,-7.57e-06,0.0,0 STARLINK-4104,1 53163U 22083AH  24223.35018179 -.00000757  00000-0 -29491-4 0  9990,2 53163  53.2170 231.5527 0001614  82.5897 277.5278 15.08845212114981,6917.864,95.437,540.846,538.613,0.0
53163.0,STARLINK-4104,PAYLOAD,2024-08-11 09:50:24,15.08851587,0.0001327,53.215,226.7937,86.0443,274.0701,0.00014082,1.955e-05,0.0,0 STARLINK-4104,1 53163U 22083AH  24224.41001021  .00001955  00000-0  14082-3 0  9994,2 53163  53.2150 226.7937 0001327  86.0443 274.0701 15.08851587115141,6917.845,95.437,540.628,538.792,0.0
53163.0,STARLINK-4104,PAYLOAD,2024-08-11 17:47:21,15.08841691,0.0001692,53.2167,225.3039,99.2291,260.8893,7.8953e-05,9.69e-06,0.0,0 STARLINK-4104,1 53163U 22083AH  24224.74121735  .00000969  00000-0  78953-4 0  9997,2 53163  53.2167 225.3039 0001692  99.2291 260.8893 15.08841691115194,6917.875,95.437,540.911,538.57,0.0
53163.0,STARLINK-4104,PAYLOAD,2024-08-12 11:16:34,15.08856754,0.0001728,53.2174,222.0355,80.1531,279.9656,0.00014587,2.035e-05,0.0,0 STARLINK-4104,1 53163U 22083AH  24225.46984698  .00002035  00000-0  14587-3 0  9990,2 53163  53.2174 222.0355 0001728  80.1531 279.9656 15.08856754115300,6917.829,95.436,540.89,538.499,0.0
53163.0,STARLINK-4104,PAYLOAD,2024-08-13 04:45:49,15.08844183,0.0001594,53.2157,218.7653,97.2231,262.8942,-3.0267e-05,-7.7e-06,0.0,0 STARLINK-4104,1 53163U 22083AH  24226.19849421 -.00000770  00000-0 -30267-4 0  9995,2 53163  53.2157 218.7653 0001594  97.2231 262.8942 15.08844183115415,6917.868,95.437,540.835,538.63,0.0
53163.0,STARLINK-4104,PAYLOAD,2024-08-13 09:31:59,15.08844476,0.0001636,53.2146,217.8716,92.6972,267.4208,3.642e-05,2.92e-06,0.0,0 STARLINK-4104,1 53163U 22083AH  24226.39721372  .00000292  00000-0  36420-4 0  9995,2 53163  53.2146 217.8716 0001636  92.6972 267.4208 15.08844476114815,6917.867,95.437,540.863,538.6,0.0
53163.0,STARLINK-4104,PAYLOAD,2024-08-14 04:36:37,15.08825818,0.000173,53.2149,214.298,119.2554,240.8611,-0.00016231,-2.869e-05,0.0,0 STARLINK-4104,1 53163U 22083AH  24227.19210601 -.00002869  00000-0 -16231-3 0  9993,2 53163  53.2149 214.2980 0001730 119.2554 240.8611 15.08825818115564,6917.924,95.438,540.986,538.592,0.0
53163.0,STARLINK-4104,PAYLOAD,2024-08-14 06:12:01,15.08823839,0.0001383,53.2158,214.0084,95.7593,264.3557,-0.00014572,-2.605e-05,0.0,0 STARLINK-4104,1 53163U 22083AH  24227.25834838 -.00002605  00000-0 -14572-3 0  9998,2 53163  53.2158 214.0084 0001383  95.7593 264.3557 15.08823839114944,6917.93,95.439,540.752,538.838,0.0
53163.0,STARLINK-4104,PAYLOAD,2024-08-14 15:44:20,15.08828546,0.0001321,53.2155,212.2248,96.1743,263.94,-0.00014171,-2.542e-05,0.0,0 STARLINK-4104,1 53163U 22083AH  24227.65578870 -.00002542  00000-0 -14171-3 0  9998,2 53163  53.2155 212.2248 0001321  96.1743 263.9400 15.08828546115007,6917.915,95.438,540.694,538.867,0.0
53163.0,STARLINK-4104,PAYLOAD,2024-08-15 04:27:25,15.08832748,0.0001202,53.2144,209.8445,87.445,272.668,4.1199e-05,3.68e-06,0.0,0 STARLINK-4104,1 53163U 22083AH  24228.18571185  .00000368  00000-0  41199-4 0  9992,2 53163  53.2144 209.8445 0001202  87.4450 272.6680 15.08832748115716,6917.903,95.438,540.599,538.936,0.0
53163.0,STARLINK-4104,PAYLOAD,2024-08-15 06:02:48,15.08834411,0.0001203,53.2146,209.5476,88.7933,271.3197,7.3087e-05,8.75e-06,0.0,0 STARLINK-4104,1 53163U 22083AH  24228.25195148  .00000875  00000-0  73087-4 0  9995,2 53163  53.2146 209.5476 0001203  88.7933 271.3197 15.08834411115099,6917.897,95.438,540.595,538.93,0.0
53163.0,STARLINK-4104,PAYLOAD,2024-08-15 15:35:06,15.08852477,0.0001347,53.2153,207.7623,85.9369,274.1777,0.00031301,4.699e-05,0.0,0 STARLINK-4104,1 53163U 22083AH  24228.64938085  .00004699  00000-0  31301-3 0  9993,2 53163  53.2153 207.7623 0001347  85.9369 274.1777 15.08852477115785,6917.842,95.437,540.639,538.775,0.0
53163.0,STARLINK-4104,PAYLOAD,2024-08-16 04:18:12,15.08826849,0.0001342,53.2146,205.3843,69.5197,290.5939,3.3405e-05,2.44e-06,0.0,0 STARLINK-4104,1 53163U 22083AH  24229.17931250  .00000244  00000-0  33405-4 0  9999,2 53163  53.2146 205.3843 0001342  69.5197 290.5939 15.08826849115862,6917.921,95.438,540.714,538.857,0.0
53163.0,STARLINK-4104,PAYLOAD,2024-08-16 05:53:35,15.08830307,0.0001255,53.2146,205.0869,95.0953,265.0182,7.1817e-05,8.55e-06,0.0,0 STARLINK-4104,1 53163U 22083AH  24229.24555042  .00000855  00000-0  71817-4 0  9995,2 53163  53.2146 205.0869 0001255  95.0953 265.0182 15.08830307115247,6917.91,95.438,540.643,538.907,0.0
53163.0,STARLINK-4104,PAYLOAD,2024-08-16 21:47:26,15.08836377,0.0001185,53.2137,202.1131,96.5882,263.5245,-0.00011455,-2.11e-05,0.0,0 STARLINK-4104,1 53163U 22083AH  24229.90794572 -.00002110  00000-0 -11455-3 0  9990,2 53163  53.2137 202.1131 0001185  96.5882 263.5245 15.08836377115343,6917.891,95.438,540.576,538.937,0.0
53163.0,STARLINK-4104,PAYLOAD,2024-08-17 04:08:59,15.08838236,0.0001312,53.2141,200.9237,90.8888,269.2254,-7.5294e-05,-1.486e-05,0.0,0 STARLINK-4104,1 53163U 22083AH  24230.17290609 -.00001486  00000-0 -75294-4 0  9990,2 53163  53.2141 200.9237 0001312  90.8888 269.2254 15.08838236116010,6917.886,95.438,540.658,538.843,0.0
53163.0,STARLINK-4104,PAYLOAD,2024-08-17 07:19:45,15.08842799,0.0001345,53.2144,200.3287,85.2849,274.8296,3.7798e-05,3.14e-06,0.0,0 STARLINK-4104,1 53163U 22083AH  24230.30538514  .00000314  00000-0  37798-4 0  9999,2 53163  53.2144 200.3287 0001345  85.2849 274.8296 15.08842799115402,6917.872,95.437,540.667,538.806,0.0
